ONEWEB-0456             
1 51646U 22012AA  25161.40595088 -.00000111  00000+0 -35481-3 0  9991
2 51646  87.8810 110.3576 0002071  87.6220 272.5144 13.10369893160650
ONEWEB-0457             
1 51647U 22012AB  25161.30637017  .00000615  00000+0  17247-2 0  9996
2 51647  87.8824 110.4315 0002155  70.6647 289.4713 13.10374251160648
ONEWEB-0458             
1 51648U 22012AC  25161.40428797 -.00000031  00000+0 -12440-3 0  9996
2 51648  87.8803 110.3944 0001914  81.1804 278.9540 13.10370644160617
ONEWEB-0461             
1 51649U 22012AD  25161.52153805  .00000037  00000+0  61101-4 0  9998
2 51649  87.9068  79.8451 0002021  76.4193 283.7163 13.17650974164941
ONEWEB-0463             
1 51650U 22012AE  25161.50298165 -.00000045  00000+0 -14784-3 0  9992
2 51650  87.9071  79.9114 0001959  77.7416 282.3935 13.17650065164724
ONEWEB-0464             
1 51651U 22012AF  25161.40097366  .00000110  00000+0  27823-3 0  9991
2 51651  87.8821 110.4214 0002044  90.6252 269.5110 13.10370548160633
ONEWEB-0468             
1 51652U 22012AG  25161.40761015 -.00000214  00000+0 -64862-3 0  9992
2 51652  87.8820 110.4120 0002026  82.0838 278.0519 13.10369974160611
ONEWEB-0473             
1 51653U 22012AH  25161.39268329  .00000489  00000+0  13642-2 0  9992
2 51653  87.8823 110.4182 0001948  81.9635 278.1714 13.10371466160615
ONEWEB-0474             
1 51654U 22012AJ  25161.38438586  .00000652  00000+0  18313-2 0  9998
2 51654  87.8814 110.3838 0001893  86.3657 273.7687 13.10374208160601
ONEWEB-0475             
1 51655U 22012AK  25161.51477585 -.00000028  00000+0 -10549-3 0  9999
2 51655  87.9070  79.8888 0001281  91.4795 268.6484 13.17651923164748
ONEWEB-0490             
1 54113U 22138A   25161.55646932  .00000036  00000+0  57409-4 0  9992
2 54113  87.9217  18.8304 0001827  92.0438 268.0904 13.19727547127812
ONEWEB-0492             
1 54114U 22138B   25161.58175195  .00000021  00000+0  19092-4 0  9994
2 54114  87.9224  18.8477 0001993  88.6041 271.5320 13.19725471127823
ONEWEB-0495             
1 54115U 22138C   25161.55963257  .00000080  00000+0  16724-3 0  9999
2 54115  87.9223  18.8635 0001793 108.3762 251.7566 13.19723969127807
ONEWEB-0497             
1 54116U 22138D   25161.57226552  .00000094  00000+0  20327-3 0  9991
2 54116  87.9222  18.8333 0001823  88.7936 271.3405 13.19726573127792
ONEWEB-0499             
1 54117U 22138E   25161.55489362  .00000077  00000+0  15918-3 0  9991
2 54117  87.9224  18.8542 0001456  87.5455 272.5844 13.19725468127806
ONEWEB-0500             
1 54118U 22138F   25161.55805301  .00000076  00000+0  15753-3 0  9993
2 54118  87.9221  18.8384 0001872  86.3541 273.7806 13.19725718127813
ONEWEB-0501             
1 54119U 22138G   25161.51226103 -.00000047  00000+0 -15016-3 0  9999
2 54119  87.9220  18.8413 0001711  99.4358 260.6968 13.19725694127782
ONEWEB-0502             
1 54120U 22138H   25161.57385582  .00000035  00000+0  54240-4 0  9992
2 54120  87.9218  18.8134 0001619  92.1921 267.9397 13.19725472127818
ONEWEB-0503             
1 54121U 22138J   25161.56278998  .00000094  00000+0  20360-3 0  9994
2 54121  87.9219  18.8204 0001566  78.7446 281.3863 13.19725827127802
ONEWEB-0504             
1 54122U 22138K   25161.55016232  .00000054  00000+0  10251-3 0  9999
2 54122  87.9220  18.8373 0001576  91.1677 268.9636 13.19725789127815
ONEWEB-0505             
1 54123U 22138L   25161.54699233  .00000080  00000+0  16869-3 0  9997
2 54123  87.9220  18.8281 0001592 104.6733 255.4576 13.19726768127794
ONEWEB-0506             
1 54124U 22138M   25161.52173070 -.00000012  00000+0 -63046-4 0  9999
2 54124  87.9219  18.8298 0001695  90.3727 269.7600 13.19726181127783
ONEWEB-0507             
1 54125U 22138N   25161.61806911  .00000051  00000+0  95160-4 0  9990
2 54125  87.9227  18.8621 0001821  92.4012 267.7329 13.19724123127841
ONEWEB-0508             
1 54126U 22138P   25161.53910744  .00000144  00000+0  32620-3 0  9996
2 54126  87.9225  18.8610 0001878  99.1768 260.9578 13.19726562127819
ONEWEB-0509             
1 54127U 22138Q   25161.51382755  .00000007  00000+0 -15703-4 0  9993
2 54127  87.9220  18.8291 0001729  89.2237 270.9094 13.19726110127785
ONEWEB-0510             
1 54128U 22138R   25161.54442324  .00000069  00000+0  13889-3 0  9995
2 54128  87.9260 348.4535 0002056  74.0497 286.0863 13.20772179130220
ONEWEB-0511             
1 54129U 22138S   25161.58649506  .00000008  00000+0 -12652-4 0  9993
2 54129  87.9219  18.8203 0001513  80.6145 279.5159 13.19722826127824
ONEWEB-0512             
1 54130U 22138T   25161.57858813  .00000019  00000+0  14115-4 0  9994
2 54130  87.9226  18.8659 0001546  97.0411 263.0898 13.19726016127792
ONEWEB-0513             
1 54131U 22138U   25161.51296414 -.00000044  00000+0 -14234-3 0  9993
2 54131  87.9224  18.8478 0001456  97.3461 262.7837 13.20262402127670
ONEWEB-0514             
1 54132U 22138V   25161.51856703 -.00000037  00000+0 -12388-3 0  9997
2 54132  87.9220  18.8455 0001780  83.6144 276.5192 13.19726014127802
ONEWEB-0515             
1 54133U 22138W   25161.53180569  .00000109  00000+0  23554-3 0  9995
2 54133  87.9256 348.4322 0002728  82.7426 277.4017 13.20772904130242
ONEWEB-0516             
1 54134U 22138X   25161.56911583  .00000057  00000+0  11040-3 0  9996
2 54134  87.9228  18.8710 0001868  88.5814 271.5532 13.19726044127818
ONEWEB-0517             
1 54135U 22138Y   25161.54858071  .00000087  00000+0  18488-3 0  9993
2 54135  87.9221  18.8348 0001543  77.9884 282.1421 13.19726107127813
ONEWEB-0518             
1 54136U 22138Z   25161.56753421  .00000088  00000+0  18739-3 0  9999
2 54136  87.9228  18.8666 0001731  90.6886 269.4445 13.19725321127818
ONEWEB-0519             
1 54137U 22138AA  25161.51698576  .00000055  00000+0  10608-3 0  9995
2 54137  87.9219  18.8338 0001567  81.4789 278.6522 13.19725954127812
ONEWEB-0520             
1 54138U 22138AB  25161.55173540  .00000034  00000+0  53571-4 0  9993
2 54138  87.9219  18.8306 0001794  97.0171 263.1165 13.19724898127805
ONEWEB-0521             
1 54139U 22138AC  25161.58490251 -.00000021  00000+0 -84968-4 0  9990
2 54139  87.9217  18.8115 0001705  76.9492 283.1831 13.19725674127755
ONEWEB-0522             
1 54140U 22138AD  25161.56437005  .00000090  00000+0  19334-3 0  9996
2 54140  87.9219  18.8168 0001871  88.5126 271.6221 13.19726578127797
ONEWEB-0523             
1 54141U 22138AE  25161.51918185 -.00000001  00000+0 -35115-4 0  9995
2 54141  87.9258 348.4652 0002337  70.3629 289.7756 13.20771648130243
ONEWEB-0524             
1 54142U 22138AF  25161.50813522  .00000026  00000+0  33115-4 0  9997
2 54142  87.9258 348.4691 0002791  89.7347 270.4106 13.20772013130245
ONEWEB-0525             
1 54143U 22138AG  25161.58332099  .00000006  00000+0 -17260-4 0  9993
2 54143  87.9220  18.8320 0001742  94.5316 265.6016 13.19726778127817
ONEWEB-0526             
1 54144U 22138AH  25161.61649941  .00000067  00000+0  13398-3 0  9998
2 54144  87.9219  18.8139 0001847  88.2976 271.8368 13.19725986127798
ONEWEB-0529             
1 54145U 22138AJ  25161.54384279  .00000085  00000+0  17996-3 0  9999
2 54145  87.9227  18.8697 0001801  93.5444 266.5895 13.19726167127806
ONEWEB-0531             
1 54146U 22138AK  25161.56968467  .00000032  00000+0  46745-4 0  9996
2 54146  87.9260 348.4510 0002546  75.1054 285.0361 13.20772005130251
ONEWEB-0535             
1 54147U 22138AL  25161.57702811  .00000018  00000+0  11727-4 0  9993
2 54147  87.9217  18.8179 0001957  77.8567 282.2785 13.19725880127821
ONEWEB-0536             
1 54148U 22138AM  25161.55706603  .00000091  00000+0  19233-3 0  9995
2 54148  87.9258 348.4992 0002783  77.2731 282.8713 13.20772146130243
ONEWEB-0527             
1 54642U 22166A   25161.42632623 -.00000025  00000+0 -93094-4 0  9998
2 54642  87.9254 318.1457 0001934  96.1643 263.9711 13.21828571122421
ONEWEB-0528             
1 54643U 22166B   25161.43264212 -.00000027  00000+0 -97374-4 0  9992
2 54643  87.9256 318.1435 0001871  99.0580 261.0766 13.21828322122436
ONEWEB-0539             
1 54644U 22166C   25161.46892202  .00000046  00000+0  80304-4 0  9996
2 54644  87.9235 318.1173 0001649  97.2026 262.9295 13.21827112122434
ONEWEB-0540             
1 54645U 22166D   25161.39966584  .00000073  00000+0  14418-3 0  9996
2 54645  87.9255 318.1596 0001613  96.0126 264.1192 13.21827544122412
ONEWEB-0542             
1 54646U 22166E   25161.47837980  .00000076  00000+0  15279-3 0  9992
2 54646  87.9237 318.1136 0001493  88.6504 271.4801 13.21826352122432
ONEWEB-0545             
1 54647U 22166F   25161.44525555  .00000057  00000+0  10709-3 0  9994
2 54647  87.9247 318.1312 0001248  95.5813 264.5463 13.21827214122398
ONEWEB-0580             
1 54648U 22166G   25161.49415825 -.00000037  00000+0 -12031-3 0  9998
2 54648  87.9255 318.1168 0001516  87.3044 272.8263 13.21826443122449
ONEWEB-0582             
1 54649U 22166H   25161.46104182  .00000126  00000+0  27478-3 0  9995
2 54649  87.9235 318.1292 0001399  83.9962 276.1331 13.21826267122410
ONEWEB-0583             
1 54650U 22166J   25161.39638560  .00000073  00000+0  14615-3 0  9991
2 54650  87.9251 318.1571 0001720  95.9553 264.1777 13.21826807122418
ONEWEB-0584             
1 54651U 22166K   25161.41687503  .00000101  00000+0  21410-3 0  9999
2 54651  87.9255 318.1366 0001560  84.1475 275.9837 13.21826232122408
ONEWEB-0585             
1 54652U 22166L   25161.44211631  .00000043  00000+0  72047-4 0  9996
2 54652  87.9245 318.1204 0001941  95.9798 264.1557 13.21826592122419
ONEWEB-0586             
1 54653U 22166M   25161.45473333  .00000065  00000+0  12669-3 0  9994
2 54653  87.9250 318.1384 0001637  93.7222 266.4099 13.21826798122419
ONEWEB-0587             
1 54654U 22166N   25161.46418610  .00000072  00000+0  14306-3 0  9991
2 54654  87.9251 318.0857 0002047  97.2834 262.8532 13.21824304122579
